{"type": "FeatureCollection", "features": [ {"type": "Feature", "properties": {"norad_id": 66498, "name": "STARLINK-35907", "group": "last-30-days", "lat": -17.157179779050438, "lon": 157.5450875846325, "alt_km": 361.6929405679548, "timestamp": "2025-12-03T22:42:31.475949+00:00", "meta": {"OBJECT_NAME": "STARLINK-35907", "OBJECT_ID": "2025-263P", "EPOCH": "2025-12-03T12:00:02.998944", "MEAN_MOTION": 15.71359734, "ECCENTRICITY": 0.0001873, "INCLINATION": 42.9992, "RA_OF_ASC_NODE": 179.5832, "ARG_OF_PERICENTER": 258.5148, "MEAN_ANOMALY": 70.4622, "EPHEMERIS_TYPE": 0, "CLASSIFICATION_TYPE": "U", "NORAD_CAT_ID": 66498, "ELEMENT_SET_NO": 999, "REV_AT_EPOCH": 415, "BSTAR": -0.016762, "MEAN_MOTION_DOT": -0.01946738, "MEAN_MOTION_DDOT": 0}, "tle": {"line1": "1 66498U 25263P   25337.50003471 -.01946738  00000+0 -16762-1 0  9993", "line2": "2 66498  42.9992 179.5832 0001873 258.5148  70.4622 15.71359734  4153"}}, "geometry": {"type": "Point", "coordinates": [157.5450875846325, -17.157179779050438]}}, {"type": "Feature", "properties": {"norad_id": 66499, "name": "STARLINK-35816", "group": "last-30-days", "lat": -14.669553051955514, "lon": 160.56806098894089, "alt_km": 361.4679295368351, "timestamp": "2025-12-03T22:42:31.475958+00:00", "meta": {"OBJECT_NAME": "STARLINK-35816", "OBJECT_ID": "2025-263Q", "EPOCH": "2025-12-03T12:00:02.998944", "MEAN_MOTION": 15.71360248, "ECCENTRICITY": 0.0001864, "INCLINATION": 42.9985, "RA_OF_ASC_NODE": 179.5733, "ARG_OF_PERICENTER": 261.5467, "MEAN_ANOMALY": 71.2655, "EPHEMERIS_TYPE": 0, "CLASSIFICATION_TYPE": "U", "NORAD_CAT_ID": 66499, "ELEMENT_SET_NO": 999, "REV_AT_EPOCH": 415, "BSTAR": -0.016771, "MEAN_MOTION_DOT": -0.01947711, "MEAN_MOTION_DDOT": 0}, "tle": {"line1": "1 66499U 25263Q   25337.50003471 -.01947711  00000+0 -16771-1 0  9996", "line2": "2 66499  42.9985 179.5733 0001864 261.5467  71.2655 15.71360248  4151"}}, "geometry": {"type": "Point", "coordinates": [160.56806098894089, -14.669553051955514]}}, {"type": "Feature", "properties": {"norad_id": 66500, "name": "STARLINK-35894", "group": "last-30-days", "lat": -17.447591748806737, "lon": 157.18275587658016, "alt_km": 365.07970660028695, "timestamp": "2025-12-03T22:42:31.475967+00:00", "meta": {"OBJECT_NAME": "STARLINK-35894", "OBJECT_ID": "2025-263R", "EPOCH": "2025-12-03T12:00:02.998944", "MEAN_MOTION": 15.7066158, "ECCENTRICITY": 0.0001827, "INCLINATION": 42.9988, "RA_OF_ASC_NODE": 179.5801, "ARG_OF_PERICENTER": 258.9801, "MEAN_ANOMALY": 71.0672, "EPHEMERIS_TYPE": 0, "CLASSIFICATION_TYPE": "U", "NORAD_CAT_ID": 66500, "ELEMENT_SET_NO": 999, "REV_AT_EPOCH": 415, "BSTAR": -0.021885, "MEAN_MOTION_DOT": -0.02445387, "MEAN_MOTION_DDOT": 0}, "tle": {"line1": "1 66500U 25263R   25337.50003471 -.02445387  00000+0 -21885-1 0  9994", "line2": "2 66500  42.9988 179.5801 0001827 258.9801  71.0672 15.70661580  4153"}}, "geometry": {"type": "Point", "coordinates": [157.18275587658016, -17.447591748806737]}}, {"type": "Feature", "properties": {"norad_id": 66501, "name": "STARLINK-35897", "group": "last-30-days", "lat": -13.411452712481205, "lon": 162.0527659157121, "alt_km": 361.46476230446933, "timestamp": "2025-12-03T22:42:31.475977+00:00", "meta": {"OBJECT_NAME": "STARLINK-35897", "OBJECT_ID": "2025-263S", "EPOCH": "2025-12-03T12:00:02.998944", "MEAN_MOTION": 15.71357862, "ECCENTRICITY": 0.0001774, "INCLINATION": 42.999, "RA_OF_ASC_NODE": 179.5683, "ARG_OF_PERICENTER": 259.3925, "MEAN_ANOMALY": 75.3375, "EPHEMERIS_TYPE": 0, "CLASSIFICATION_TYPE": "U", "NORAD_CAT_ID": 66501, "ELEMENT_SET_NO": 999, "REV_AT_EPOCH": 415, "BSTAR": -0.016732, "MEAN_MOTION_DOT": -0.01943478, "MEAN_MOTION_DDOT": 0}, "tle": {"line1": "1 66501U 25263S   25337.50003471 -.01943478  00000+0 -16732-1 0  9993", "line2": "2 66501  42.9990 179.5683 0001774 259.3925  75.3375 15.71357862  4151"}}, "geometry": {"type": "Point", "coordinates": [162.0527659157121, -13.411452712481205]}}, {"type": "Feature", "properties": {"norad_id": 66502, "name": "STARLINK-35922", "group": "last-30-days", "lat": -9.570509700002425, "lon": 166.4394316856819, "alt_km": 361.36511182868435, "timestamp": "2025-12-03T22:42:31.475986+00:00", "meta": {"OBJECT_NAME": "STARLINK-35922", "OBJECT_ID": "2025-263T", "EPOCH": "2025-12-03T12:00:02.998944", "MEAN_MOTION": 15.71485419, "ECCENTRICITY": 0.0001977, "INCLINATION": 42.9992, "RA_OF_ASC_NODE": 179.5532, "ARG_OF_PERICENTER": 262.6944, "MEAN_ANOMALY": 77.7913, "EPHEMERIS_TYPE": 0, "CLASSIFICATION_TYPE": "U", "NORAD_CAT_ID": 66502, "ELEMENT_SET_NO": 999, "REV_AT_EPOCH": 415, "BSTAR": -0.018732, "MEAN_MOTION_DOT": -0.02156403, "MEAN_MOTION_DDOT": 0}, "tle": {"line1": "1 66502U 25263T   25337.50003471 -.02156403  00000+0 -18732-1 0  9991", "line2": "2 66502  42.9992 179.5532 0001977 262.6944  77.7913 15.71485419  4154"}}, "geometry": {"type": "Point", "coordinates": [166.4394316856819, -9.570509700002425]}}, {"type": "Feature", "properties": {"norad_id": 66503, "name": "STARLINK-35917", "group": "last-30-days", "lat": -6.9975858810085345, "lon": 169.28566871908072, "alt_km": 360.5854371118494, "timestamp": "2025-12-03T22:42:31.475997+00:00", "meta": {"OBJECT_NAME": "STARLINK-35917", "OBJECT_ID": "2025-263U", "EPOCH": "2025-12-03T06:00:02.999808", "MEAN_MOTION": 15.72454852, "ECCENTRICITY": 0.00016606, "INCLINATION": 42.999, "RA_OF_ASC_NODE": 181.0536, "ARG_OF_PERICENTER": 271.6287, "MEAN_ANOMALY": 96.2485, "EPHEMERIS_TYPE": 0, "CLASSIFICATION_TYPE": "U", "NORAD_CAT_ID": 66503, "ELEMENT_SET_NO": 999, "REV_AT_EPOCH": 411, "BSTAR": -0.016446633, "MEAN_MOTION_DOT": -0.01995302, "MEAN_MOTION_DDOT": 0}, "tle": {"line1": "1 66503U 25263U   25337.25003472 -.01995302  00000+0 -16447-1 0  9994", "line2": "2 66503  42.9990 181.0536 0001660 271.6287  96.2485 15.72454852  4118"}}, "geometry": {"type": "Point", "coordinates": [169.28566871908072, -6.9975858810085345]}}, {"type": "Feature", "properties": {"norad_id": 66504, "name": "STARLINK-35916", "group": "last-30-days", "lat": 40.16619443754935, "lon": -67.4811540041436, "alt_km": 411.5736136868172, "timestamp": "2025-12-03T22:42:31.476006+00:00", "meta": {"OBJECT_NAME": "STARLINK-35916", "OBJECT_ID": "2025-263V", "EPOCH": "2025-12-03T12:00:02.998944", "MEAN_MOTION": 15.52566157, "ECCENTRICITY": 0.0001716, "INCLINATION": 42.9991, "RA_OF_ASC_NODE": 180.0651, "ARG_OF_PERICENTER": 279.9146, "MEAN_ANOMALY": 214.25, "EPHEMERIS_TYPE": 0, "CLASSIFICATION_TYPE": "U", "NORAD_CAT_ID": 66504, "ELEMENT_SET_NO": 999, "REV_AT_EPOCH": 415, "BSTAR": -0.045601, "MEAN_MOTION_DOT": -0.02543699, "MEAN_MOTION_DDOT": 0}, "tle": {"line1": "1 66504U 25263V   25337.50003471 -.02543699  00000+0 -45601-1 0  9995", "line2": "2 66504  42.9991 180.0651 0001716 279.9146 214.2500 15.52566157  4158"}}, "geometry": {"type": "Point", "coordinates": [-67.4811540041436, 40.16619443754935]}}, {"type": "Feature", "properties": {"norad_id": 66505, "name": "STARLINK-34766", "group": "last-30-days", "lat": -12.14505831014649, "lon": 163.52112818404558, "alt_km": 361.3799558491537, "timestamp": "2025-12-03T22:42:31.476015+00:00", "meta": {"OBJECT_NAME": "STARLINK-34766", "OBJECT_ID": "2025-263W", "EPOCH": "2025-12-03T12:00:02.998944", "MEAN_MOTION": 15.71356337, "ECCENTRICITY": 0.0001684, "INCLINATION": 42.9991, "RA_OF_ASC_NODE": 179.5632, "ARG_OF_PERICENTER": 259.4448, "MEAN_ANOMALY": 77.1996, "EPHEMERIS_TYPE": 0, "CLASSIFICATION_TYPE": "U", "NORAD_CAT_ID": 66505, "ELEMENT_SET_NO": 999, "REV_AT_EPOCH": 415, "BSTAR": -0.016676, "MEAN_MOTION_DOT": -0.01937501, "MEAN_MOTION_DDOT": 0}, "tle": {"line1": "1 66505U 25263W   25337.50003471 -.01937501  00000+0 -16676-1 0  9994", "line2": "2 66505  42.9991 179.5632 0001684 259.4448  77.1996 15.71356337  4156"}}, "geometry": {"type": "Point", "coordinates": [163.52112818404558, -12.14505831014649]}}, {"type": "Feature", "properties": {"norad_id": 66506, "name": "STARLINK-34765", "group": "last-30-days", "lat": -10.870413883990725, "lon": 164.97685172092702, "alt_km": 361.28541449387376, "timestamp": "2025-12-03T22:42:31.476024+00:00", "meta": {"OBJECT_NAME": "STARLINK-34765", "OBJECT_ID": "2025-263X", "EPOCH": "2025-12-03T12:00:02.998944", "MEAN_MOTION": 15.71356342, "ECCENTRICITY": 0.0001644, "INCLINATION": 42.9991, "RA_OF_ASC_NODE": 179.5589, "ARG_OF_PERICENTER": 259.8769, "MEAN_ANOMALY": 78.685, "EPHEMERIS_TYPE": 0, "CLASSIFICATION_TYPE": "U", "NORAD_CAT_ID": 66506, "ELEMENT_SET_NO": 999, "REV_AT_EPOCH": 415, "BSTAR": -0.01668, "MEAN_MOTION_DOT": -0.01937896, "MEAN_MOTION_DDOT": 0}, "tle": {"line1": "1 66506U 25263X   25337.50003471 -.01937896  00000+0 -16680-1 0  9997", "line2": "2 66506  42.9991 179.5589 0001644 259.8769  78.6850 15.71356342  4155"}}, "geometry": {"type": "Point", "coordinates": [164.97685172092702, -10.870413883990725]}}, {"type": "Feature", "properties": {"norad_id": 66507, "name": "STARLINK-34767", "group": "last-30-days", "lat": -8.30034936688744, "lon": 167.85168161648838, "alt_km": 360.9242287118195, "timestamp": "2025-12-03T22:42:31.476033+00:00", "meta": {"OBJECT_NAME": "STARLINK-34767", "OBJECT_ID": "2025-263Y", "EPOCH": "2025-12-03T12:00:02.998944", "MEAN_MOTION": 15.71353201, "ECCENTRICITY": 0.0001783, "INCLINATION": 42.9992, "RA_OF_ASC_NODE": 179.5482, "ARG_OF_PERICENTER": 265.349, "MEAN_ANOMALY": 77.0489, "EPHEMERIS_TYPE": 0, "CLASSIFICATION_TYPE": "U", "NORAD_CAT_ID": 66507, "ELEMENT_SET_NO": 999, "REV_AT_EPOCH": 415, "BSTAR": -0.016653, "MEAN_MOTION_DOT": -0.01935035, "MEAN_MOTION_DDOT": 0}, "tle": {"line1": "1 66507U 25263Y   25337.50003471 -.01935035  00000+0 -16653-1 0  9991", "line2": "2 66507  42.9992 179.5482 0001783 265.3490  77.0489 15.71353201  4158"}}, "geometry": {"type": "Point", "coordinates": [167.85168161648838, -8.30034936688744]}}]}